<?xml version="1.0" encoding="UTF-8"?>
<ndm xmlns:xsi="http://www.w3.org/2001/XMLSchema-instance" xsi:noNamespaceSchemaLocation="https://sanaregistry.org/r/ndmxml_unqualified/ndmxml-2.0.0-master-2.0.xsd">
<omm id="CCSDS_OMM_VERS" version="2.0">
<header><CREATION_DATE/><ORIGINATOR/></header><body><segment><metadata><OBJECT_NAME>IRIDIUM 63</OBJECT_NAME><OBJECT_ID>1998-021B</OBJECT_ID><CENTER_NAME>EARTH</CENTER_NAME><REF_FRAME>TEME</REF_FRAME><TIME_SYSTEM>UTC</TIME_SYSTEM><MEAN_ELEMENT_THEORY>SGP4</MEAN_ELEMENT_THEORY></metadata><data><meanElements><EPOCH>2025-12-12T03:21:01.941120</EPOCH><MEAN_MOTION>14.36734999</MEAN_MOTION><ECCENTRICITY>.0002407</ECCENTRICITY><INCLINATION>86.3984</INCLINATION><RA_OF_ASC_NODE>7.4664</RA_OF_ASC_NODE><ARG_OF_PERICENTER>89.3164</ARG_OF_PERICENTER><MEAN_ANOMALY>270.8309</MEAN_ANOMALY></meanElements><tleParameters><EPHEMERIS_TYPE>0</EPHEMERIS_TYPE><CLASSIFICATION_TYPE>U</CLASSIFICATION_TYPE><NORAD_CAT_ID>25286</NORAD_CAT_ID><ELEMENT_SET_NO>999</ELEMENT_SET_NO><REV_AT_EPOCH>44939</REV_AT_EPOCH><BSTAR>.19249718E-3</BSTAR><MEAN_MOTION_DOT>.587E-5</MEAN_MOTION_DOT><MEAN_MOTION_DDOT>0</MEAN_MOTION_DDOT></tleParameters></data></segment></body></omm>
<omm id="CCSDS_OMM_VERS" version="2.0">
<header><CREATION_DATE/><ORIGINATOR/></header><body><segment><metadata><OBJECT_NAME>IRIDIUM 69</OBJECT_NAME><OBJECT_ID>1998-026A</OBJECT_ID><CENTER_NAME>EARTH</CENTER_NAME><REF_FRAME>TEME</REF_FRAME><TIME_SYSTEM>UTC</TIME_SYSTEM><MEAN_ELEMENT_THEORY>SGP4</MEAN_ELEMENT_THEORY></metadata><data><meanElements><EPOCH>2025-12-12T03:49:39.804672</EPOCH><MEAN_MOTION>14.41216826</MEAN_MOTION><ECCENTRICITY>.00039326</ECCENTRICITY><INCLINATION>86.3979</INCLINATION><RA_OF_ASC_NODE>20.1841</RA_OF_ASC_NODE><ARG_OF_PERICENTER>126.0254</ARG_OF_PERICENTER><MEAN_ANOMALY>234.1310</MEAN_ANOMALY></meanElements><tleParameters><EPHEMERIS_TYPE>0</EPHEMERIS_TYPE><CLASSIFICATION_TYPE>U</CLASSIFICATION_TYPE><NORAD_CAT_ID>25319</NORAD_CAT_ID><ELEMENT_SET_NO>999</ELEMENT_SET_NO><REV_AT_EPOCH>44869</REV_AT_EPOCH><BSTAR>.23282442E-3</BSTAR><MEAN_MOTION_DOT>.771E-5</MEAN_MOTION_DOT><MEAN_MOTION_DDOT>0</MEAN_MOTION_DDOT></tleParameters></data></segment></body></omm>
<omm id="CCSDS_OMM_VERS" version="2.0">
<header><CREATION_DATE/><ORIGINATOR/></header><body><segment><metadata><OBJECT_NAME>IRIDIUM 71</OBJECT_NAME><OBJECT_ID>1998-026B</OBJECT_ID><CENTER_NAME>EARTH</CENTER_NAME><REF_FRAME>TEME</REF_FRAME><TIME_SYSTEM>UTC</TIME_SYSTEM><MEAN_ELEMENT_THEORY>SGP4</MEAN_ELEMENT_THEORY></metadata><data><meanElements><EPOCH>2025-12-12T03:30:40.446144</EPOCH><MEAN_MOTION>14.41317503</MEAN_MOTION><ECCENTRICITY>.00018929</ECCENTRICITY><INCLINATION>86.3979</INCLINATION><RA_OF_ASC_NODE>14.8624</RA_OF_ASC_NODE><ARG_OF_PERICENTER>153.7296</ARG_OF_PERICENTER><MEAN_ANOMALY>206.4000</MEAN_ANOMALY></meanElements><tleParameters><EPHEMERIS_TYPE>0</EPHEMERIS_TYPE><CLASSIFICATION_TYPE>U</CLASSIFICATION_TYPE><NORAD_CAT_ID>25320</NORAD_CAT_ID><ELEMENT_SET_NO>999</ELEMENT_SET_NO><REV_AT_EPOCH>44922</REV_AT_EPOCH><BSTAR>.13175992E-3</BSTAR><MEAN_MOTION_DOT>.446E-5</MEAN_MOTION_DOT><MEAN_MOTION_DDOT>0</MEAN_MOTION_DDOT></tleParameters></data></segment></body></omm>
<omm id="CCSDS_OMM_VERS" version="2.0">
<header><CREATION_DATE/><ORIGINATOR/></header><body><segment><metadata><OBJECT_NAME>IRIDIUM 73</OBJECT_NAME><OBJECT_ID>1998-032C</OBJECT_ID><CENTER_NAME>EARTH</CENTER_NAME><REF_FRAME>TEME</REF_FRAME><TIME_SYSTEM>UTC</TIME_SYSTEM><MEAN_ELEMENT_THEORY>SGP4</MEAN_ELEMENT_THEORY></metadata><data><meanElements><EPOCH>2025-12-12T00:29:56.039136</EPOCH><MEAN_MOTION>14.51988462</MEAN_MOTION><ECCENTRICITY>.0002932</ECCENTRICITY><INCLINATION>86.4406</INCLINATION><RA_OF_ASC_NODE>331.2945</RA_OF_ASC_NODE><ARG_OF_PERICENTER>94.5278</ARG_OF_PERICENTER><MEAN_ANOMALY>265.6262</MEAN_ANOMALY></meanElements><tleParameters><EPHEMERIS_TYPE>0</EPHEMERIS_TYPE><CLASSIFICATION_TYPE>U</CLASSIFICATION_TYPE><NORAD_CAT_ID>25344</NORAD_CAT_ID><ELEMENT_SET_NO>999</ELEMENT_SET_NO><REV_AT_EPOCH>45636</REV_AT_EPOCH><BSTAR>.26173E-3</BSTAR><MEAN_MOTION_DOT>.1077E-4</MEAN_MOTION_DOT><MEAN_MOTION_DDOT>0</MEAN_MOTION_DDOT></tleParameters></data></segment></body></omm>
<omm id="CCSDS_OMM_VERS" version="2.0">
<header><CREATION_DATE/><ORIGINATOR/></header><body><segment><metadata><OBJECT_NAME>IRIDIUM 82</OBJECT_NAME><OBJECT_ID>1998-051A</OBJECT_ID><CENTER_NAME>EARTH</CENTER_NAME><REF_FRAME>TEME</REF_FRAME><TIME_SYSTEM>UTC</TIME_SYSTEM><MEAN_ELEMENT_THEORY>SGP4</MEAN_ELEMENT_THEORY></metadata><data><meanElements><EPOCH>2025-12-12T03:07:35.647680</EPOCH><MEAN_MOTION>15.46568491</MEAN_MOTION><ECCENTRICITY>.00606034</ECCENTRICITY><INCLINATION>86.3613</INCLINATION><RA_OF_ASC_NODE>21.4154</RA_OF_ASC_NODE><ARG_OF_PERICENTER>337.6959</ARG_OF_PERICENTER><MEAN_ANOMALY>22.1663</MEAN_ANOMALY></meanElements><tleParameters><EPHEMERIS_TYPE>0</EPHEMERIS_TYPE><CLASSIFICATION_TYPE>U</CLASSIFICATION_TYPE><NORAD_CAT_ID>25467</NORAD_CAT_ID><ELEMENT_SET_NO>999</ELEMENT_SET_NO><REV_AT_EPOCH>45130</REV_AT_EPOCH><BSTAR>.97223546E-3</BSTAR><MEAN_MOTION_DOT>.52188E-3</MEAN_MOTION_DOT><MEAN_MOTION_DDOT>0</MEAN_MOTION_DDOT></tleParameters></data></segment></body></omm>
</ndm>
