IRIDIUM 63              
1 25286U 98021B   25346.13960580  .00000587  00000+0  19250-3 0  9994
2 25286  86.3984   7.4664 0002407  89.3164 270.8309 14.36734999449397
IRIDIUM 69              
1 25319U 98026A   25346.15948847  .00000771  00000+0  23282-3 0  9995
2 25319  86.3979  20.1841 0003933 126.0254 234.1310 14.41216826448698
IRIDIUM 71              
1 25320U 98026B   25346.14630146  .00000446  00000+0  13176-3 0  9996
2 25320  86.3979  14.8624 0001893 153.7296 206.4000 14.41317503449227
IRIDIUM 73              
1 25344U 98032C   25346.02078749  .00001077  00000+0  26173-3 0  9993
2 25344  86.4406 331.2945 0002932  94.5278 265.6262 14.51988462456367
IRIDIUM 82              
1 25467U 98051A   25346.13027369  .00052188  00000+0  97224-3 0  9998
2 25467  86.3613  21.4154 0060603 337.6959  22.1663 15.46568491451309
